STARLINK-1712_new
1 16581C 20070BB  21326.14100154 -.00013370  00000-0 -89552-3 0  3265
2 16581  53.0548 358.0961 0001758  59.1858  98.1790 15.06422941    19
STARLINK-1712_old
1 26581C 20070BB  21325.16807738  .00000948  00000-0  63486-4 0  3251
2 26581  53.0546   2.4640 0001763  59.3560 218.8782 15.06400842    17
